     2.10           GLONASS NAV DATA                        RINEX VERSION / TYPE
SPIDER V4,0,0,3554                      2015 03 18 00:14    PGM / RUN BY / DATE 
  2015     2    15   9.313225746155e-010                    CORR TO SYSTEM TIME 
    16                                                      LEAP SECONDS        
                                                            END OF HEADER       
21 15 02 15 09 45  0.0-1.141801476479D-06 1.818989403546D-12 3.423000000000D+04
    1.252613281250D+04 2.328118324280D+00 0.000000000000D+00 0.000000000000D+00
   -1.288867724609D+04-8.558073043823D-01 9.313225746155D-10 4.000000000000D+00
    1.809407080078D+04-2.224552154541D+00-2.793967723846D-09 9.000000000000D+00
16 15 02 15 09 45  0.0-2.115964889526D-05 1.818989403546D-12 3.474000000000D+04
    2.024007373047D+04 1.115724563599D+00 4.656612873077D-09 0.000000000000D+00
    1.210655664063D+04 7.660446166992D-01-9.313225746155D-10-1.000000000000D+00
   -9.847855468750D+03 3.238106727600D+00-9.313225746155D-10 0.000000000000D+00
 6 15 02 15 10 15  0.0 6.261095404625D-05 0.000000000000D+00 3.600000000000D+04
    1.085603417969D+04-2.509126663208D-01-0.000000000000D+00 0.000000000000D+00
   -9.436513183594D+03 2.875374794006D+00 0.000000000000D+00-4.000000000000D+00
    2.105327587891D+04 1.414112091064D+00-2.793967723846D-09 0.000000000000D+00
16 15 02 15 10 15  0.0-2.115592360497D-05 1.818989403546D-12 3.600000000000D+04
    2.174999316406D+04 5.253143310547D-01 2.793967723846D-09 0.000000000000D+00
    1.288912597656D+04 1.249713897705D-01-1.862645149231D-09-1.000000000000D+00
   -3.715559570313D+03 3.531579017639D+00-9.313225746155D-10 0.000000000000D+00
 5 15 02 15 10 15  0.0 2.315267920494D-06 0.000000000000D+00 3.600000000000D+04
    9.478328613281D+03-1.406135559082D-01-9.313225746155D-10 0.000000000000D+00
    1.081823583984D+04 2.882309913635D+00-0.000000000000D+00 1.000000000000D+00
    2.105307763672D+04-1.415963172913D+00-2.793967723846D-09 0.000000000000D+00
14 15 02 15 10 15  0.0 1.317113637924D-04 3.637978807092D-12 3.600000000000D+04
   -2.818958496094D+03-2.577589035034D+00-2.793967723846D-09 0.000000000000D+00
    1.060825146484D+04-1.828475952148D+00-0.000000000000D+00-7.000000000000D+00
    2.301303906250D+04 5.207786560059D-01-9.313225746155D-10 0.000000000000D+00
15 15 02 15 10 15  0.0 3.905594348907D-05 0.000000000000D+00 3.600000000000D+04
    1.226326367188D+04-1.581538200378D+00-0.000000000000D+00 0.000000000000D+00
    1.661460791016D+04-1.311774253845D+00-9.313225746155D-10 0.000000000000D+00
    1.490618457031D+04 2.774778366089D+00-1.862645149231D-09 0.000000000000D+00
20 15 02 15 10 15  0.0-1.585297286510D-04-9.094947017729D-13 3.600000000000D+04
    2.357239648438D+04-3.578395843506D-01 4.656612873077D-09 0.000000000000D+00
   -9.570548339844D+03-5.958271026611D-02-0.000000000000D+00 2.000000000000D+00
   -2.190211425781D+03-3.567225456238D+00-1.862645149231D-09 0.000000000000D+00
22 15 02 15 10 15  0.0 1.531234011054D-04 9.094947017729D-13 3.609000000000D+04
   -2.844282226563D+02 2.798695564270D+00-1.862645149231D-09 0.000000000000D+00
   -1.157100341797D+04-1.363146781921D+00 9.313225746155D-10-3.000000000000D+00
    2.275378515625D+04-6.458663940430D-01-1.862645149231D-09 0.000000000000D+00
21 15 02 15 10 15  0.0-1.137144863605D-06 1.818989403546D-12 3.612000000000D+04
    1.608618652344D+04 1.604866027832D+00 1.862645149231D-09 0.000000000000D+00
   -1.451807275391D+04-9.136629104614D-01 0.000000000000D+00 4.000000000000D+00
    1.344166210938D+04-2.911262512207D+00-2.793967723846D-09 0.000000000000D+00
 7 15 02 15 10 15  0.0-1.148832961917D-04-0.000000000000D+00 3.753000000000D+04
    6.016515625000D+03-2.385463714600D-01 9.313225746155D-10 0.000000000000D+00
   -2.313486865234D+04 1.206929206848D+00 1.862645149231D-09 5.000000000000D+00
    8.953747070313D+03 3.286113739014D+00-1.862645149231D-09 0.000000000000D+00
22 15 02 15 10 45  0.0 1.531261950731D-04 9.094947017729D-13 3.780000000000D+04
    4.367347656250D+03 2.333121299744D+00-0.000000000000D+00 0.000000000000D+00
   -1.427862207031D+04-1.609933853149D+00 9.313225746155D-10-3.000000000000D+00
    2.072946972656D+04-1.588486671448D+00-2.793967723846D-09 0.000000000000D+00
 6 15 02 15 10 45  0.0 6.261188536882D-05 0.000000000000D+00 3.780000000000D+04
    1.078171533203D+04 1.791791915894D-01-0.000000000000D+00 0.000000000000D+00
   -4.001635253906D+03 3.113926887512D+00 0.000000000000D+00-4.000000000000D+00
    2.275083203125D+04 4.597024917603D-01-2.793967723846D-09 0.000000000000D+00
 7 15 02 15 10 45  0.0-1.148842275143D-04-0.000000000000D+00 3.780000000000D+04
    5.757789062500D+03-1.368236541748D-02 0.000000000000D+00 0.000000000000D+00
   -2.024636816406D+04 1.976370811462D+00 9.313225746155D-10 5.000000000000D+00
    1.444711669922D+04 2.778133392334D+00-2.793967723846D-09 0.000000000000D+00
 5 15 02 15 10 45  0.0 2.316199243069D-06 0.000000000000D+00 3.780000000000D+04
    9.588075195313D+03 2.415914535522D-01-9.313225746155D-10 0.000000000000D+00
    1.562828906250D+04 2.418371200562D+00-9.313225746155D-10 1.000000000000D+00
    1.772256591797D+04-2.260514259338D+00-1.862645149231D-09 0.000000000000D+00
15 15 02 15 10 45  0.0 3.905687481165D-05 0.000000000000D+00 3.780000000000D+04
    8.759279296875D+03-2.292299270630D+00-1.862645149231D-09 0.000000000000D+00
    1.420372021484D+04-1.321981430054D+00-0.000000000000D+00 0.000000000000D+00
    1.925735156250D+04 2.028548240662D+00-1.862645149231D-09 0.000000000000D+00
16 15 02 15 10 45  0.0-2.115126699209D-05 1.818989403546D-12 3.780000000000D+04
    2.202320166016D+04-2.440271377563D-01 1.862645149231D-09 0.000000000000D+00
    1.266005859375D+04-3.445281982422D-01-1.862645149231D-09-1.000000000000D+00
    2.702479003906D+03 3.553492546082D+00-1.862645149231D-09 0.000000000000D+00
20 15 02 15 10 45  0.0-1.585325226188D-04-9.094947017729D-13 3.780000000000D+04
    2.224950146484D+04-1.082286834717D+00 5.587935447693D-09 0.000000000000D+00
   -9.244914550781D+03 4.514045715332D-01-9.313225746155D-10 2.000000000000D+00
   -8.444061035156D+03-3.336479187012D+00-9.313225746155D-10 0.000000000000D+00
21 15 02 15 10 45  0.0-1.134350895882D-06 1.818989403546D-12 3.780000000000D+04
    1.825600488281D+04 8.025150299072D-01 3.725290298462D-09 0.000000000000D+00
   -1.602262548828D+04-7.143211364746D-01-0.000000000000D+00 4.000000000000D+00
    7.748893554688D+03-3.372945785522D+00-2.793967723846D-09 0.000000000000D+00
 9 15 02 15 10 45  0.0-4.371628165245D-06 0.000000000000D+00 3.894000000000D+04
    2.108973535156D+04 1.754945755005D+00 4.656612873077D-09 0.000000000000D+00
    3.567521972656D+03 7.315073013306D-01-1.862645149231D-09-2.000000000000D+00
   -1.383156542969D+04 2.878611564636D+00-0.000000000000D+00 0.000000000000D+00
22 15 02 15 11 15  0.0 1.531345769763D-04 1.818989403546D-12 3.960000000000D+04
    8.010226562500D+03 1.694046974182D+00 9.313225746155D-10 0.000000000000D+00
   -1.722096728516D+04-1.615067481995D+00 0.000000000000D+00-3.000000000000D+00
    1.710980566406D+04-2.407155990601D+00-2.793967723846D-09 0.000000000000D+00
 6 15 02 15 11 15  0.0 6.261281669140D-05 0.000000000000D+00 3.960000000000D+04
    1.150815185547D+04 6.209592819214D-01-9.313225746155D-10 0.000000000000D+00
    1.590187988281D+03 3.048315048218D+00-0.000000000000D+00-4.000000000000D+00
    2.268646679688D+04-5.308370590210D-01-2.793967723846D-09 0.000000000000D+00
 7 15 02 15 11 15  0.0-1.148851588368D-04-0.000000000000D+00 3.960000000000D+04
    6.074342773438D+03 3.885297775269D-01 0.000000000000D+00 0.000000000000D+00
   -1.614212792969D+04 2.543206214905D+00 9.313225746155D-10 5.000000000000D+00
    1.882630810547D+04 2.056169509888D+00-2.793967723846D-09 0.000000000000D+00
 5 15 02 15 11 15  0.0 2.317130565643D-06 0.000000000000D+00 3.960000000000D+04
    1.024735302734D+04 4.569950103760D-01-9.313225746155D-10 0.000000000000D+00
    1.938841162109D+04 1.728975296021D+00-9.313225746155D-10 1.000000000000D+00
    1.302059033203D+04-2.929917335510D+00-9.313225746155D-10 0.000000000000D+00
 9 15 02 15 11 15  0.0-4.371628165245D-06 0.000000000000D+00 3.960000000000D+04
    2.370564111328D+04 1.113782882690D+00 3.725290298462D-09 0.000000000000D+00
    4.396022949219D+03 2.124586105347D-01-2.793967723846D-09-2.000000000000D+00
   -8.180056640625D+03 3.359981536865D+00-9.313225746155D-10 0.000000000000D+00
15 15 02 15 11 15  0.0 3.906153142452D-05 0.000000000000D+00 3.960000000000D+04
    4.113504394531D+03-2.833016395569D+00-2.793967723846D-09 0.000000000000D+00
    1.200438623047D+04-1.085410118103D+00 0.000000000000D+00 0.000000000000D+00
    2.211523339844D+04 1.126502990723D+00-1.862645149231D-09 0.000000000000D+00
16 15 02 15 11 15  0.0-2.114754170179D-05 1.818989403546D-12 3.960000000000D+04
    2.082354394531D+04-1.092745780945D+00 0.000000000000D+00 0.000000000000D+00
    1.178997167969D+04-5.802221298218D-01-1.862645149231D-09-1.000000000000D+00
    8.912355468750D+03 3.301681518555D+00-1.862645149231D-09 0.000000000000D+00
20 15 02 15 11 15  0.0-1.585362479091D-04-9.094947017729D-13 3.960000000000D+04
    1.980750439453D+04-1.589079856873D+00 4.656612873077D-09 0.000000000000D+00
   -7.863644042969D+03 1.097881317139D+00-1.862645149231D-09 2.000000000000D+00
   -1.404661035156D+04-2.848186492920D+00-0.000000000000D+00 0.000000000000D+00
21 15 02 15 11 15  0.0-1.131556928158D-06 1.818989403546D-12 3.960000000000D+04
    1.899744287109D+04 3.683662414551D-02 4.656612873077D-09 0.000000000000D+00
   -1.693831689453D+04-2.643089294434D-01-9.313225746155D-10 4.000000000000D+00
    1.456098632813D+03-3.573578834534D+00-2.793967723846D-09 0.000000000000D+00
